[{"OBJECT_NAME":"SPHEREX (MIDEX 9)","OBJECT_ID":"2025-047E","EPOCH":"2026-03-09T22:30:11.286432","MEAN_MOTION":14.73844034,"ECCENTRICITY":0.00111067,"INCLINATION":97.9571,"RA_OF_ASC_NODE":255.6032,"ARG_OF_PERICENTER":146.1567,"MEAN_ANOMALY":214.0352,"EPHEMERIS_TYPE":0,"CLASSIFICATION_TYPE":"U","NORAD_CAT_ID":63182,"ELEMENT_SET_NO":999,"REV_AT_EPOCH":5342,"BSTAR":0.00026584435,"MEAN_MOTION_DOT":1.693e-5,"MEAN_MOTION_DDOT":0},{"OBJECT_NAME":"COSMOS 2251 DEB","OBJECT_ID":"1993-036UW","EPOCH":"2026-03-09T03:43:02.329248","MEAN_MOTION":14.74668863,"ECCENTRICITY":0.00118364,"INCLINATION":74.0189,"RA_OF_ASC_NODE":333.4916,"ARG_OF_PERICENTER":33.5956,"MEAN_ANOMALY":117.2317,"EPHEMERIS_TYPE":0,"CLASSIFICATION_TYPE":"U","NORAD_CAT_ID":34560,"ELEMENT_SET_NO":999,"REV_AT_EPOCH":89524,"BSTAR":0.0025100572,"MEAN_MOTION_DOT":0.00016786,"MEAN_MOTION_DDOT":0}]
